OBJECT_NAME,OBJECT_ID,EPOCH,MEAN_MOTION,ECCENTRICITY,INCLINATION,RA_OF_ASC_NODE,ARG_OF_PERICENTER,MEAN_ANOMALY,EPHEMERIS_TYPE,CLASSIFICATION_TYPE,NORAD_CAT_ID,ELEMENT_SET_NO,REV_AT_EPOCH,BSTAR,MEAN_MOTION_DOT,MEAN_MOTION_DDOT
STARLINK-31188,2024-012T,2026-06-19T10:10:25.194144,15.27577408,.00015007,43.0031,310.8122,272.1544,87.9136,0,U,58804,999,13679,-.15781557E-4,-.696E-5,0
STARLINK-31138,2024-012V,2026-06-19T10:14:07.395936,15.27561496,.0001299,43.0011,310.8270,276.0462,84.0242,0,U,58806,999,13679,.10689825E-3,.2679E-4,0
STARLINK-31163,2024-012W,2026-06-19T10:50:54.927168,15.27577186,.00010924,43.0030,310.1613,249.2059,110.8676,0,U,58807,999,13680,.1571632E-4,.17E-5,0
STARLINK-31174,2024-012X,2026-06-19T10:49:03.778752,15.27580767,.00012621,43.0036,310.1518,258.1672,101.9038,0,U,58808,999,13680,.24002102E-4,.398E-5,0
STARLINK-31169,2024-012Y,2026-06-19T10:08:32.767872,15.27592663,.00011275,43.0020,310.7987,278.2863,81.7861,0,U,58809,999,13679,.77733436E-4,.1878E-4,0
STARLINK-31233,2024-017A,2026-06-20T03:31:23.997792,15.30185677,.00015574,53.1607,88.3672,110.3885,249.7283,0,U,58826,999,13586,.16407435E-3,.4501E-4,0
STARLINK-31271,2024-017B,2026-06-19T23:27:14.215968,15.30221856,.00013741,53.1601,89.4388,89.0595,271.0563,0,U,58827,999,13571,.10581124E-2,.31132E-3,0
STARLINK-31222,2024-017C,2026-06-19T22:11:15.004608,15.30200377,.00013937,53.1613,89.1091,97.0565,263.0594,0,U,58828,999,13571,.16228849E-4,.121E-5,0
STARLINK-31258,2024-017D,2026-06-19T22:58:21.529632,15.30197998,.00013189,53.1598,89.3086,111.2210,248.8932,0,U,58829,999,13571,.1006779E-4,-.61E-6,0
STARLINK-31253,2024-017E,2026-06-20T03:35:08.509920,15.31699495,.00014864,53.1610,87.6723,85.4749,274.6422,0,U,58830,999,13575,.10480986E-3,.2888E-4,0
STARLINK-31232,2024-017F,2026-06-20T03:21:41.711904,15.31715118,.000153,53.1606,87.6093,81.1917,278.9257,0,U,58831,999,13575,.16181297E-4,.137E-5,0
STARLINK-31263,2024-017G,2026-06-19T23:13:41.007936,15.34406698,.00012215,53.1592,78.0203,104.6024,255.5115,0,U,58832,999,13598,.1344616E-3,.417E-4,0
STARLINK-31171,2024-017J,2026-06-19T22:01:22.885536,15.30143904,.00015296,53.1612,65.9234,98.5046,261.6128,0,U,58834,999,13603,.46610475E-3,.13447E-3,0
STARLINK-31246,2024-017K,2026-06-20T06:34:57.448992,15.30183615,.00013592,53.1590,87.7367,118.7838,241.3300,0,U,58835,999,13576,.14870111E-4,.81E-6,0
STARLINK-31251,2024-017L,2026-06-20T03:37:28.075296,15.30201873,.0001428,53.1597,88.3868,96.3042,263.8121,0,U,58836,999,13585,.73006347E-4,.1804E-4,0
STARLINK-31249,2024-017N,2026-06-19T23:04:26.873760,15.30181812,.00016156,53.1598,89.3371,92.9094,267.2092,0,U,58838,999,13571,-.75671811E-4,-.2599E-4,0
STARLINK-31250,2024-017P,2026-06-19T23:07:37.074720,15.34404313,.00014631,53.1625,77.9937,106.4738,253.6425,0,U,58839,999,13582,.61651745E-4,.1707E-4,0
STARLINK-31248,2024-017Q,2026-06-19T12:41:34.977984,15.34391958,.00012269,53.1590,102.2468,87.7652,272.3491,0,U,58840,999,13560,.16039826E-4,.166E-5,0
STARLINK-31236,2024-017R,2026-06-19T23:13:35.709888,15.30170099,.00014157,53.1594,89.3781,83.4598,276.6564,0,U,58841,999,13571,-.57931534E-4,-.2073E-4,0
STARLINK-31228,2024-017S,2026-06-20T05:25:12.124128,15.30200119,.00014333,53.1598,88.1386,121.0786,239.0355,0,U,58842,999,13575,.51413712E-4,.1164E-4,0
STARLINK-31280,2024-017T,2026-06-19T23:18:06.751872,15.30197344,.00014423,53.1600,89.3958,85.1146,275.0019,0,U,58843,999,13571,.21158853E-3,.5912E-4,0
STARLINK-31269,2024-017U,2026-06-20T06:19:27.041952,15.30193240,.00012718,53.1597,177.9970,94.5353,265.5793,0,U,58844,999,13447,.20543986E-4,.249E-5,0
STARLINK-31264,2024-017V,2026-06-20T06:40:33.739392,15.30194049,.00012304,53.1595,177.3820,101.0661,259.0478,0,U,58845,999,13448,.27355466E-4,.451E-5,0
STARLINK-31273,2024-017W,2026-06-20T04:04:51.388608,15.30182091,.00011902,53.1604,88.5048,84.4377,275.6759,0,U,58846,999,13574,.11339278E-4,-.23E-6,0
STARLINK-31262,2024-017X,2026-06-20T06:51:12.098880,15.30194851,.00011692,53.1594,177.4310,88.3045,271.8089,0,U,58847,999,13448,.28704742E-4,.491E-5,0
STARLINK-31238,2024-019A,2026-06-20T00:15:39.915360,15.27583175,.00017803,43.0059,30.8463,266.8646,93.2003,0,U,58853,999,13473,.48745199E-4,.1079E-4,0
STARLINK-31158,2024-019B,2026-06-20T00:24:55.213344,15.27576945,.00013283,43.0008,30.8927,263.4016,96.6684,0,U,58854,999,13473,.46674871E-4,.1022E-4,0
STARLINK-31237,2024-019C,2026-06-20T00:08:15.237024,15.27583960,.00040459,43.0159,30.8230,256.8601,103.1800,0,U,58855,999,13473,.31291347E-4,.598E-5,0
STARLINK-31244,2024-019D,2026-06-20T00:32:19.164192,15.27581736,.00011701,43.0016,30.9361,258.3401,101.7319,0,U,58856,999,13473,.29458379E-4,.549E-5,0
STARLINK-31226,2024-019F,2026-06-20T00:54:31.599072,15.27581774,.00005556,43.0029,31.0533,285.8443,74.2348,0,U,58858,999,13473,-.27732768E-4,-.1025E-4,0
STARLINK-31197,2024-019G,2026-06-19T23:37:00.803712,15.27582333,.00010545,43.0019,31.5111,267.6504,92.4227,0,U,58859,999,13472,.51849952E-4,.1165E-4,0
STARLINK-31213,2024-019H,2026-06-20T00:34:10.896672,15.27565011,.00011607,43.0022,30.9437,274.7406,85.3314,0,U,58860,999,13473,.27237356E-4,.487E-5,0
STARLINK-31199,2024-019J,2026-06-20T00:28:37.184448,15.27582119,.00011257,43.0008,30.9159,271.0920,88.9803,0,U,58861,999,13473,.41331201E-4,.876E-5,0
STARLINK-31200,2024-019K,2026-06-20T00:30:28.194624,15.27584519,.0001179,42.9998,30.9244,277.7975,82.2743,0,U,58862,999,13473,.49369128E-4,.1097E-4,0
STARLINK-31149,2024-019L,2026-06-19T23:51:36.521280,15.27575144,.00010822,43.0016,30.7317,282.3362,77.7369,0,U,58863,999,13473,.85525139E-4,.2092E-4,0
STARLINK-31242,2024-019M,2026-06-20T06:56:20.877792,15.27576222,.00017038,43.0018,29.4968,271.0421,89.0235,0,U,58864,999,13477,-.35302874E-4,-.1233E-4,0
STARLINK-31223,2024-019N,2026-06-20T06:58:12.857376,15.27567792,.00011502,43.0012,29.5141,296.9554,63.1180,0,U,58865,999,13475,-.10171406E-4,-.542E-5,0
STARLINK-31219,2024-019P,2026-06-20T00:06:25.025184,15.27573520,.0001003,43.0029,30.8061,286.5737,73.5004,0,U,58866,999,13471,.72635695E-4,.1737E-4,0
STARLINK-31198,2024-019Q,2026-06-19T22:45:12.701952,15.27578701,.00014637,43.0046,31.2195,272.8564,87.2120,0,U,58867,999,13470,.19183508E-4,.266E-5,0
STARLINK-31196,2024-019R,2026-06-19T23:42:33.800544,15.27581687,.00010847,43.0033,31.5348,276.0342,84.0386,0,U,58868,999,13470,.61259056E-4,.1424E-4,0
STARLINK-31203,2024-019S,2026-06-19T00:51:25.008768,15.27568811,.00011896,43.0001,32.9452,282.3992,77.6727,0,U,58869,999,13462,.89620139E-4,.2204E-4,0
STARLINK-31201,2024-019T,2026-06-19T23:55:18.642720,15.27587406,.0001391,43.0046,30.7444,260.0688,100.0006,0,U,58870,999,13471,.15374391E-3,.3972E-4,0
STARLINK-31214,2024-019U,2026-06-20T00:13:48.384192,15.27587272,.00009384,43.0017,30.8279,286.9173,73.1575,0,U,58871,999,13471,.58354342E-4,.1344E-4,0
STARLINK-31215,2024-019V,2026-06-20T00:17:31.500096,15.27578528,.00003879,43.0031,30.8604,73.9075,286.1820,0,U,58872,999,13471,.2032735E-4,.298E-5,0
STARLINK-31177,2024-019W,2026-06-20T00:10:06.966048,15.27578043,.00014713,43.0041,30.8167,272.1697,87.8987,0,U,58873,999,13473,.59033874E-4,.1362E-4,0
STARLINK-30945,2024-019X,2026-06-20T00:58:14.526624,15.27564431,.00011357,43.0034,31.0593,273.1116,86.9606,0,U,58874,999,13473,-.5959419E-5,-.426E-5,0
STARLINK-31212,2024-019Y,2026-06-20T00:00:52.221024,15.27575583,.00016017,43.0030,30.7761,278.0512,82.0158,0,U,58875,999,13471,-.16144328E-4,-.706E-5,0
STARLINK-31306,2024-020A,2026-06-20T07:04:05.025504,15.34392633,.00011087,53.1597,204.8939,83.1875,276.9254,0,U,58876,999,13497,.31170137E-4,.677E-5,0
STARLINK-31326,2024-020B,2026-06-20T07:05:10.086432,15.31703908,.00010068,53.1591,205.6012,78.7476,281.3639,0,U,58877,999,13378,.37735849E-4,.806E-5,0
STARLINK-31300,2024-020C,2026-06-20T06:36:49.017312,15.34393240,.00012886,53.1600,204.7773,83.1886,276.9263,0,U,58878,999,13379,.30114523E-4,.641E-5,0
STARLINK-31296,2024-020D,2026-06-20T07:08:45.822912,15.30198874,.00010862,53.1604,180.0438,82.7154,277.3970,0,U,58879,999,13414,.36368445E-4,.718E-5,0
STARLINK-31328,2024-020E,2026-06-20T07:07:17.677632,15.30181407,.00015001,53.1610,190.6068,91.6787,268.4385,0,U,58880,999,13399,-.60812503E-4,-.2159E-4,0
STARLINK-31260,2024-020F,2026-06-20T07:07:06.650400,15.34383674,.0001136,53.1598,204.9058,81.6624,278.4507,0,U,58881,999,13379,.71150019E-4,.2027E-4,0
STARLINK-31323,2024-020G,2026-06-20T06:39:51.247008,15.34400936,.00009661,53.1611,204.7866,84.9032,275.2081,0,U,58882,999,13379,.11221098E-3,.3417E-4,0
STARLINK-31209,2024-020H,2026-06-19T09:50:12.542496,15.34387984,.00012731,53.1591,208.6203,87.8529,272.2619,0,U,58883,999,13366,.28845225E-4,.598E-5,0
STARLINK-31315,2024-020J,2026-06-20T07:01:08.643360,15.30194470,.00013949,53.1594,179.8881,82.4552,277.6608,0,U,58884,999,13414,.26977939E-4,.44E-5,0
STARLINK-31318,2024-020K,2026-06-18T12:41:30.777216,15.31706050,.0001185,53.1603,213.7709,76.7474,283.3659,0,U,58885,999,13351,.29655E-4,.555E-5,0
STARLINK-31320,2024-020L,2026-06-19T09:41:06.905760,15.34398363,.00012509,53.1605,208.5770,84.4164,275.6981,0,U,58886,999,13366,-.70467935E-4,-.2756E-4,0
STARLINK-31321,2024-020M,2026-06-20T07:01:02.976384,15.34389259,.00008878,53.1596,204.8797,116.2223,243.8871,0,U,58887,999,13495,.2918141E-4,.61E-5,0
STARLINK-31007,2024-020P,2026-06-20T06:33:47.231712,15.34391195,.0001158,53.1587,204.7649,59.9286,300.1831,0,U,58889,999,13379,-.38116503E-4,-.1663E-4,0
STARLINK-31230,2024-020Q,2026-06-20T01:30:23.354784,15.34390197,.00012464,53.1601,203.4782,85.4837,274.6308,0,U,58890,999,13379,.32696239E-4,.728E-5,0
STARLINK-31245,2024-020R,2026-06-20T05:11:43.493568,15.34396933,.00012257,53.1590,163.4423,90.0017,270.1126,0,U,58891,999,13552,.41902473E-4,.104E-4,0
STARLINK-31255,2024-020T,2026-06-19T08:19:26.678784,15.34374846,.00004472,53.1589,208.9280,103.3027,256.8026,0,U,58893,999,13365,-.17844876E-4,-.978E-5,0
STARLINK-31243,2024-020U,2026-06-20T06:51:43.648704,15.31701851,.0001201,53.1596,205.5469,87.5159,272.5980,0,U,58894,999,13378,.29603295E-4,.554E-5,0
